NORAD_CAT_ID,OBJECT_NAME,OBJECT_TYPE,EPOCH,MEAN_MOTION,ECCENTRICITY,INCLINATION,RA_OF_ASC_NODE,ARG_OF_PERICENTER,MEAN_ANOMALY,BSTAR,MEAN_MOTION_DOT,MEAN_MOTION_DDOT,TLE_LINE0,TLE_LINE1,TLE_LINE2,SEMIMAJOR_AXIS,PERIOD,APOGEE,PERIGEE,DECAYED
52607.0,STARLINK-3947,PAYLOAD,2022-08-07 22:00:00,15.08808693,0.0001661,53.2148,43.9158,69.2014,283.7583,0.0026346,0.00041855,0.0,0 STARLINK-3947,1 52607U 22052K   22219.91667824  .00041855  00000-0  26346-2 0  9996,2 52607  53.2148  43.9158 0001661  69.2014 283.7583 15.08808693  1309,6917.976,95.44,540.99,538.692,0.0
52607.0,STARLINK-3947,PAYLOAD,2022-08-08 14:00:01,15.08862855,0.0001575,53.2151,40.9212,76.347,299.851,-0.00028135,-4.766e-05,0.0,0 STARLINK-3947,1 52607U 22052K   22220.58335648 -.00004766  00000-0 -28135-3 0  9998,2 52607  53.2151  40.9212 0001575  76.3470 299.8510 15.08862855  1308,6917.811,95.436,540.765,538.586,0.0
52607.0,STARLINK-3947,PAYLOAD,2022-08-08 20:00:01,15.08863389,0.0001624,53.215,39.8001,68.8139,226.1019,-0.0012507999999999,-0.00020152,0.0,0 STARLINK-3947,1 52607U 22052K   22220.83335648 -.00020152  00000-0 -12508-2 0  9999,2 52607  53.2150  39.8001 0001624  68.8139 226.1019 15.08863389 13564,6917.809,95.436,540.797,538.55,0.0
52607.0,STARLINK-3947,PAYLOAD,2022-08-08 22:00:00,15.08851796,0.0001587,53.2151,39.4263,67.3622,320.399,-4.4365e-05,-9.94e-06,0.0,0 STARLINK-3947,1 52607U 22052K   22220.91667824 -.00000994  00000-0 -44365-4 0  9992,2 52607  53.2151  39.4263 0001587  67.3622 320.3990 15.08851796  1303,6917.844,95.437,540.807,538.611,0.0
52607.0,STARLINK-3947,PAYLOAD,2022-08-09 14:00:01,15.0884071,0.0001374,53.2153,36.4318,74.4866,336.4766,-0.001459,-0.00023433,0.0,0 STARLINK-3947,1 52607U 22052K   22221.58334491 -.00023433  00000-0 -14590-2 0  9995,2 52607  53.2153  36.4318 0001374  74.4866 336.4766 15.08840710  1309,6917.878000000002,95.438,540.694,538.793,0.0
52607.0,STARLINK-3947,PAYLOAD,2022-08-09 22:00:00,15.08799713,0.0001467,53.2151,34.9367,65.9457,356.6105,0.0012544,0.0001971,0.0,0 STARLINK-3947,1 52607U 22052K   22221.91667824  .00019710  00000-0  12544-2 0  9999,2 52607  53.2151  34.9367 0001467  65.9457 356.6105 15.08799713  1305,6918.004,95.44,540.883,538.854,0.0
52607.0,STARLINK-3947,PAYLOAD,2022-08-10 04:00:00,15.08821064,0.0001428,53.215,33.813,70.8317,270.3886,-0.0016225999999999,-0.00026005,0.0,0 STARLINK-3947,1 52607U 22052K   22222.16667824 -.00026005  00000-0 -16226-2 0  9995,2 52607  53.2150  33.8130 0001428  70.8317 270.3886 15.08821064 13763,6917.938,95.439,540.7909999999998,538.815,0.0
52607.0,STARLINK-3947,PAYLOAD,2022-08-10 14:00:01,15.08831127,0.0001419,53.2153,31.9424,75.8612,9.8037,-0.0012708,-0.00020451,0.0,0 STARLINK-3947,1 52607U 22052K   22222.58334491 -.00020451  00000-0 -12708-2 0  9992,2 52607  53.2153  31.9424 0001419  75.8612   9.8037 15.08831127  1305,6917.908,95.438,540.754,538.7909999999998,0.0
52607.0,STARLINK-3947,PAYLOAD,2022-08-10 20:00:01,15.08807872,0.0001494,53.2152,30.8212,68.7969,295.5546,0.0013718,0.00021592,0.0,0 STARLINK-3947,1 52607U 22052K   22222.83334491  .00021592  00000-0  13718-2 0  9997,2 52607  53.2152  30.8212 0001494  68.7969 295.5546 15.08807872 13869,6917.979,95.44,540.877,538.81,0.0
52607.0,STARLINK-3947,PAYLOAD,2022-08-10 22:00:00,15.08797765,0.0001450999999999,53.215,30.4472,67.0205,30.2259,0.0031016,0.00049363,0.0,0 STARLINK-3947,1 52607U 22052K   22222.91667824  .00049363  00000-0  31016-2 0  9992,2 52607  53.2150  30.4472 0001451  67.0205  30.2259 15.08797765  1309,6918.009,95.44,540.878,538.871,0.0
52607.0,STARLINK-3947,PAYLOAD,2022-08-11 14:00:01,15.08848573,0.0001392,53.215,27.45300000000001,76.9135,43.4735,-0.0015517,-0.00024904,0.0,0 STARLINK-3947,1 52607U 22052K   22223.58334491 -.00024904  00000-0 -15517-2 0  9991,2 52607  53.2150  27.4530 0001392  76.9135  43.4735 15.08848573  1304,6917.854,95.437,540.682,538.756,0.0
52607.0,STARLINK-3947,PAYLOAD,2022-08-11 20:00:01,15.08822902,0.0001452,53.215,26.3319,69.9113,329.1791,0.0018175,0.00028742,0.0,0 STARLINK-3947,1 52607U 22052K   22223.83334491  .00028742  00000-0  18175-2 0  9994,2 52607  53.2150  26.3319 0001452  69.9113 329.1791 15.08822902 14018,6917.933000000001,95.439,540.802,538.793,0.0
52607.0,STARLINK-3947,PAYLOAD,2022-08-12 14:00:01,15.08871717,0.0001365,53.2148,22.9637,76.5513,78.6326,-0.0013472,-0.00021683,0.0,0 STARLINK-3947,1 52607U 22052K   22224.58334491 -.00021683  00000-0 -13472-2 0  9991,2 52607  53.2148  22.9637 0001365  76.5513  78.6326 15.08871717  1307,6917.783,95.436,540.5930000000002,538.7040000000002,0.0
52607.0,STARLINK-3947,PAYLOAD,2022-08-12 20:00:01,15.0885875,0.0001376999999999,53.2148,21.8423,68.6947,5.2732,-0.00081595,-0.00013257,0.0,0 STARLINK-3947,1 52607U 22052K   22224.83335648 -.00013257  00000-0 -81595-3 0  9994,2 52607  53.2148  21.8423 0001377  68.6947   5.2732 15.08858750 14161,6917.823,95.436,540.641,538.735,0.0
52607.0,STARLINK-3947,PAYLOAD,2022-08-12 22:00:01,15.0885311,0.000134,53.2146,21.4681,66.6199,100.2538,-0.00042163,-6.994e-05,0.0,0 STARLINK-3947,1 52607U 22052K   22224.91668981 -.00006994  00000-0 -42163-3 0  9990,2 52607  53.2146  21.4681 0001340  66.6199 100.2538 15.08853110  1305,6917.84,95.437,540.632,538.778,0.0
52607.0,STARLINK-3947,PAYLOAD,2022-08-13 14:00:01,15.08836762,0.0001364,53.2149,18.4743,74.7504,115.2548,-0.0021506999999999,-0.0003435,0.0,0 STARLINK-3947,1 52607U 22052K   22225.58334491 -.00034350  00000-0 -21507-2 0  9995,2 52607  53.2149  18.4743 0001364  74.7504 115.2548 15.08836762  1300,6917.89,95.438,540.6990000000002,538.812,0.0
52607.0,STARLINK-3947,PAYLOAD,2022-08-13 22:00:00,15.08805874,0.0001406999999999,53.2147,16.9788,66.0861,135.4975,0.0023752,0.0003768,0.0,0 STARLINK-3947,1 52607U 22052K   22225.91667824  .00037680  00000-0  23752-2 0  9992,2 52607  53.2147  16.9788 0001407  66.0861 135.4975 15.08805874  1306,6917.985,95.44,540.823,538.876,0.0
52607.0,STARLINK-3947,PAYLOAD,2022-08-14 04:00:00,15.08825108,0.000131,53.2158,15.8551,73.0756,47.18600000000001,-7.719e-05,-1.516e-05,0.0,0 STARLINK-3947,1 52607U 22052K   22226.16667824 -.00001516  00000-0 -77190-4 0  9998,2 52607  53.2158  15.8551 0001310  73.0756  47.1860 15.08825108 14362,6917.926,95.438,540.697,538.885,0.0
52607.0,STARLINK-3947,PAYLOAD,2022-08-14 14:00:01,15.08851749,0.0001414,53.2151,13.9852,72.1585,152.5868,-0.0011726,-0.00018907,0.0,0 STARLINK-3947,1 52607U 22052K   22226.58334491 -.00018907  00000-0 -11726-2 0  9998,2 52607  53.2151  13.9852 0001414  72.1585 152.5868 15.08851749  1302,6917.844,95.437,540.688,538.731,0.0
52607.0,STARLINK-3947,PAYLOAD,2022-08-14 20:00:01,15.08821817,0.0001438,53.2153,12.8638,64.4726,78.9824,0.00336,0.00053566,0.0,0 STARLINK-3947,1 52607U 22052K   22226.83334491  .00053566  00000-0  33600-2 0  9999,2 52607  53.2153  12.8638 0001438  64.4726  78.9824 15.08821817 14468,6917.936,95.439,540.7959999999998,538.806,0.0
52607.0,STARLINK-3947,PAYLOAD,2022-08-14 22:00:00,15.08840995,0.0001416999999999,53.2151,12.4895,63.8766,172.4716,0.0014888,0.00023486,0.0,0 STARLINK-3947,1 52607U 22052K   22226.91667824  .00023486  00000-0  14888-2 0  9992,2 52607  53.2151  12.4895 0001417  63.8766 172.4716 15.08840995  1308,6917.877,95.437,540.7230000000002,538.762,0.0
52607.0,STARLINK-3947,PAYLOAD,2022-08-15 04:00:00,15.08854488,0.0001283,53.2155,11.3658,70.1626,84.8913,-0.0022343,-0.00035685,0.0,0 STARLINK-3947,1 52607U 22052K   22227.16667824 -.00035685  00000-0 -22343-2 0  9991,2 52607  53.2155  11.3658 0001283  70.1626  84.8913 15.08854488 14518,6917.8359999999975,95.437,540.589,538.814,0.0
52607.0,STARLINK-3947,PAYLOAD,2022-08-15 14:00:01,15.08846234,0.0001336,53.2156,9.496,67.7501,191.7967,-0.001108,-0.00017881,0.0,0 STARLINK-3947,1 52607U 22052K   22227.58334491 -.00017881  00000-0 -11080-2 0  9992,2 52607  53.2156   9.4960 0001336  67.7501 191.7967 15.08846234  1306,6917.861,95.437,540.651,538.802,0.0
52607.0,STARLINK-3947,PAYLOAD,2022-08-15 20:00:01,15.08819666,0.0001406,53.2158,8.3746,60.948,117.3011,0.002759,0.00043871,0.0,0 STARLINK-3947,1 52607U 22052K   22227.83334491  .00043871  00000-0  27590-2 0  9999,2 52607  53.2158   8.3746 0001406  60.9480 117.3011 15.08819666 14618,6917.943,95.439,540.78,538.835,0.0
52607.0,STARLINK-3947,PAYLOAD,2022-08-15 22:00:00,15.08847783,0.0001385,53.2155,8.0003,61.3201,209.8185,-0.00069419,-0.00011321,0.0,0 STARLINK-3947,1 52607U 22052K   22227.91667824 -.00011321  00000-0 -69419-3 0  9991,2 52607  53.2155   8.0003 0001385  61.3201 209.8185 15.08847783  1302,6917.857,95.437,540.68,538.763,0.0
52607.0,STARLINK-3947,PAYLOAD,2022-08-16 04:00:01,15.088299,0.0001327,53.216,6.8765,68.6689,121.2419,-0.00036857,-6.147e-05,0.0,0 STARLINK-3947,1 52607U 22052K   22228.16668981 -.00006147  00000-0 -36857-3 0  9994,2 52607  53.2160   6.8765 0001327  68.6689 121.2419 15.08829900 14666,6917.911,95.438,540.694,538.8580000000002,0.0
52607.0,STARLINK-3947,PAYLOAD,2022-08-16 14:00:01,15.08843133,0.0001453999999999,53.216,5.007,67.363,226.9595,-0.0010067,-0.00016275,0.0,0 STARLINK-3947,1 52607U 22052K   22228.58334491 -.00016275  00000-0 -10067-2 0  9993,2 52607  53.2160   5.0070 0001454  67.3630 226.9595 15.08843133  1308,6917.871,95.437,540.742,538.73,0.0
52607.0,STARLINK-3947,PAYLOAD,2022-08-16 20:00:01,15.08814786,0.0001491,53.216,3.8855,61.4555,151.5664,0.0034981,0.00055787,0.0,0 STARLINK-3947,1 52607U 22052K   22228.83334491  .00055787  00000-0  34981-2 0  9991,2 52607  53.2160   3.8855 0001491  61.4555 151.5664 15.08814786 14774,6917.956999999999,95.439,540.854,538.7909999999998,0.0
52607.0,STARLINK-3947,PAYLOAD,2022-08-16 22:00:00,15.08841786,0.0001460999999999,53.2158,3.511,61.7854,244.1253,0.0005746,8.869e-05,0.0,0 STARLINK-3947,1 52607U 22052K   22228.91667824  .00008869  00000-0  57460-3 0  9996,2 52607  53.2158   3.5110 0001461  61.7854 244.1253 15.08841786  1302,6917.875,95.437,540.751,538.729,0.0
